*******************************************************************************
Ephemeris / WWW_USER Fri Mar  7 11:15:13 2025 Pasadena, USA      / Horizons    
*******************************************************************************
Target body name: (2018 VC)                       {source: JPL#21}
Center body name: Earth (399)                     {source: DE441}
Center-site name: Mauna Kea
*******************************************************************************
Start time      : A.D. 2019-Jan-19 04:15:00.0000 UT      
Stop  time      : A.D. 2019-Jan-19 16:49:00.0000 UT      
Step-size       : 1 minutes
*******************************************************************************
Target pole/equ : undefined
Target radii    : undefined                                                    
Center geodetic : 204.5278, 19.8260847, 4.21024   {E-lon(deg),Lat(deg),Alt(km)}
Center cylindric: 204.5278, 6006.35451, 2151.0229 {E-lon(deg),Dxy(km),Dz(km)}
Center pole/equ : ITRF93                          {East-longitude positive}
Center radii    : 6378.137, 6378.137, 6356.752 km {Equator_a, b, pole_c}       
Target primary  : Sun
Vis. interferer : MOON (R_eq= 1737.400) km        {source: DE441}
Rel. light bend : Sun                             {source: DE441}
Rel. lght bnd GM: 1.3271E+11 km^3/s^2                                          
Small-body perts: Yes                             {source: SB441-N16}
Atmos refraction: NO (AIRLESS)
RA format       : HMS
Time format     : CAL 
Calendar mode   : Mixed Julian/Gregorian
RTS-only print  : NO       
EOP file        : eop.250306.p250602                                           
EOP coverage    : DATA-BASED 1962-JAN-20 TO 2025-MAR-06. PREDICTS-> 2025-JUN-01
Units conversion: 1 au= 149597870.700 km, c= 299792.458 km/s, 1 day= 86400.0 s 
Table cut-offs 1: Elevation (-90.0deg=NO ),Airmass (>38.000=NO), Daylight (YES)
Table cut-offs 2: Solar elongation (  0.0,180.0=NO ),Local Hour Angle( 0.0=NO )
Table cut-offs 3: RA/DEC angular rate (     0.0=NO )                           
*******************************************************************************
Initial IAU76/J2000 heliocentric ecliptic osculating elements (au, days, deg.):
  EPOCH=  2458962.5 ! 2020-Apr-23.00 (TDB)         Residual RMS= .087367       
   EC= .1691367762722357   QR= .9358500167919792   TP= 2458809.0997793972      
   OM= 36.58853997425776   W=  304.3228784920618   IN= 3.701146998496158       
  Equivalent ICRF heliocentric cartesian coordinates (au, au/d):
   X=-6.479543737333916E-01  Y= 9.538692942598190E-01  Z= 5.016232001756915E-01
  VX=-1.316843360643849E-02 VY=-5.467047892625660E-03 VZ=-2.149198049185293E-03
Asteroid physical parameters (km, seconds, rotational period in hours):        
   GM= n.a.                RAD= n.a.               ROTPER= n.a.                
   H= 26.34                G= .150                 B-V= n.a.                   
                           ALBEDO= n.a.            STYP= n.a.                  
*******************************************************************************
 Date__(UT)__HR:MN     R.A._________(ICRF)_________DEC
******************************************************
$$SOE
 2019-Jan-19 06:18  m  03 55 12.532861 +32 52 10.98951
 2019-Jan-19 06:19  m  03 55 12.611230 +32 52 10.88126
 2019-Jan-19 06:20  m  03 55 12.689599 +32 52 10.77275
 2019-Jan-19 06:21  m  03 55 12.767968 +32 52 10.66400
 2019-Jan-19 06:22  m  03 55 12.846338 +32 52 10.55500
 2019-Jan-19 06:23  m  03 55 12.924707 +32 52 10.44576
 2019-Jan-19 06:24  m  03 55 13.003077 +32 52 10.33626
 2019-Jan-19 06:25  t  03 55 13.081448 +32 52 10.22652
 2019-Jan-19 06:26  m  03 55 13.159819 +32 52 10.11652
 2019-Jan-19 06:27  m  03 55 13.238192 +32 52 10.00628
 2019-Jan-19 06:28  m  03 55 13.316565 +32 52 09.89579
 2019-Jan-19 06:29  m  03 55 13.394940 +32 52 09.78505
 2019-Jan-19 06:30  m  03 55 13.473316 +32 52 09.67406
 2019-Jan-19 06:31  m  03 55 13.551694 +32 52 09.56282
 2019-Jan-19 06:32  m  03 55 13.630073 +32 52 09.45133
 2019-Jan-19 06:33  m  03 55 13.708454 +32 52 09.33960
 2019-Jan-19 06:34  m  03 55 13.786838 +32 52 09.22762
 2019-Jan-19 06:35  m  03 55 13.865223 +32 52 09.11538
 2019-Jan-19 06:36  m  03 55 13.943611 +32 52 09.00290
 2019-Jan-19 06:37  m  03 55 14.022001 +32 52 08.89017
 2019-Jan-19 06:38  m  03 55 14.100394 +32 52 08.77720
 2019-Jan-19 06:39  m  03 55 14.178790 +32 52 08.66397
 2019-Jan-19 06:40  m  03 55 14.257189 +32 52 08.55050
 2019-Jan-19 06:41  m  03 55 14.335591 +32 52 08.43678
 2019-Jan-19 06:42  m  03 55 14.413996 +32 52 08.32281
 2019-Jan-19 06:43  m  03 55 14.492405 +32 52 08.20859
 2019-Jan-19 06:44  m  03 55 14.570818 +32 52 08.09413
 2019-Jan-19 06:45  m  03 55 14.649234 +32 52 07.97942
 2019-Jan-19 06:46  m  03 55 14.727654 +32 52 07.86446
 2019-Jan-19 06:47  m  03 55 14.806079 +32 52 07.74925
 2019-Jan-19 06:48  m  03 55 14.884507 +32 52 07.63379
 2019-Jan-19 06:49  m  03 55 14.962940 +32 52 07.51809
 2019-Jan-19 06:50  m  03 55 15.041378 +32 52 07.40214
 2019-Jan-19 06:51  m  03 55 15.119820 +32 52 07.28595
 2019-Jan-19 06:52  m  03 55 15.198267 +32 52 07.16950
 2019-Jan-19 06:53  m  03 55 15.276720 +32 52 07.05281
 2019-Jan-19 06:54  m  03 55 15.355177 +32 52 06.93588
 2019-Jan-19 06:55  m  03 55 15.433640 +32 52 06.81870
 2019-Jan-19 06:56  m  03 55 15.512109 +32 52 06.70127
 2019-Jan-19 06:57  m  03 55 15.590583 +32 52 06.58359
 2019-Jan-19 06:58  m  03 55 15.669063 +32 52 06.46567
 2019-Jan-19 06:59  m  03 55 15.747549 +32 52 06.34751
 2019-Jan-19 07:00  m  03 55 15.826041 +32 52 06.22909
 2019-Jan-19 07:01  m  03 55 15.904539 +32 52 06.11044
 2019-Jan-19 07:02  m  03 55 15.983044 +32 52 05.99153
 2019-Jan-19 07:03  m  03 55 16.061556 +32 52 05.87239
 2019-Jan-19 07:04  m  03 55 16.140074 +32 52 05.75300
 2019-Jan-19 07:05  m  03 55 16.218600 +32 52 05.63336
 2019-Jan-19 07:06  m  03 55 16.297132 +32 52 05.51348
 2019-Jan-19 07:07  m  03 55 16.375672 +32 52 05.39335
 2019-Jan-19 07:08  m  03 55 16.454219 +32 52 05.27298
 2019-Jan-19 07:09  m  03 55 16.532774 +32 52 05.15237
 2019-Jan-19 07:10  m  03 55 16.611336 +32 52 05.03151
 2019-Jan-19 07:11  m  03 55 16.689906 +32 52 04.91041
 2019-Jan-19 07:12  m  03 55 16.768485 +32 52 04.78907
 2019-Jan-19 07:13  m  03 55 16.847071 +32 52 04.66748
 2019-Jan-19 07:14  m  03 55 16.925666 +32 52 04.54566
 2019-Jan-19 07:15  m  03 55 17.004270 +32 52 04.42358
 2019-Jan-19 07:16  m  03 55 17.082882 +32 52 04.30127
 2019-Jan-19 07:17  m  03 55 17.161503 +32 52 04.17872
 2019-Jan-19 07:18  m  03 55 17.240133 +32 52 04.05592
 2019-Jan-19 07:19  m  03 55 17.318772 +32 52 03.93288
 2019-Jan-19 07:20  m  03 55 17.397420 +32 52 03.80960
 2019-Jan-19 07:21  m  03 55 17.476078 +32 52 03.68608
 2019-Jan-19 07:22  m  03 55 17.554745 +32 52 03.56232
 2019-Jan-19 07:23  m  03 55 17.633422 +32 52 03.43832
 2019-Jan-19 07:24  m  03 55 17.712109 +32 52 03.31408
 2019-Jan-19 07:25  m  03 55 17.790807 +32 52 03.18960
 2019-Jan-19 07:26  m  03 55 17.869514 +32 52 03.06488
 2019-Jan-19 07:27  m  03 55 17.948232 +32 52 02.93992
 2019-Jan-19 07:28  m  03 55 18.026960 +32 52 02.81472
 2019-Jan-19 07:29  m  03 55 18.105699 +32 52 02.68929
 2019-Jan-19 07:30  m  03 55 18.184448 +32 52 02.56361
 2019-Jan-19 07:31  m  03 55 18.263209 +32 52 02.43770
 2019-Jan-19 07:32  m  03 55 18.341981 +32 52 02.31155
 2019-Jan-19 07:33  m  03 55 18.420764 +32 52 02.18516
 2019-Jan-19 07:34  m  03 55 18.499558 +32 52 02.05854
 2019-Jan-19 07:35  m  03 55 18.578364 +32 52 01.93168
 2019-Jan-19 07:36  m  03 55 18.657182 +32 52 01.80458
 2019-Jan-19 07:37  m  03 55 18.736012 +32 52 01.67725
 2019-Jan-19 07:38  m  03 55 18.814854 +32 52 01.54968
 2019-Jan-19 07:39  m  03 55 18.893708 +32 52 01.42188
 2019-Jan-19 07:40  m  03 55 18.972574 +32 52 01.29384
 2019-Jan-19 07:41  m  03 55 19.051453 +32 52 01.16557
 2019-Jan-19 07:42  m  03 55 19.130344 +32 52 01.03706
 2019-Jan-19 07:43  m  03 55 19.209248 +32 52 00.90832
 2019-Jan-19 07:44  m  03 55 19.288166 +32 52 00.77935
 2019-Jan-19 07:45  m  03 55 19.367096 +32 52 00.65014
 2019-Jan-19 07:46  m  03 55 19.446039 +32 52 00.52070
 2019-Jan-19 07:47  m  03 55 19.524996 +32 52 00.39103
 2019-Jan-19 07:48  m  03 55 19.603967 +32 52 00.26113
 2019-Jan-19 07:49  m  03 55 19.682951 +32 52 00.13099
 2019-Jan-19 07:50  m  03 55 19.761949 +32 52 00.00063
 2019-Jan-19 07:51  m  03 55 19.840961 +32 51 59.87003
 2019-Jan-19 07:52  m  03 55 19.919987 +32 51 59.73920
 2019-Jan-19 07:53  m  03 55 19.999027 +32 51 59.60815
 2019-Jan-19 07:54  m  03 55 20.078082 +32 51 59.47686
 2019-Jan-19 07:55  m  03 55 20.157151 +32 51 59.34535
 2019-Jan-19 07:56  m  03 55 20.236235 +32 51 59.21361
 2019-Jan-19 07:57  m  03 55 20.315334 +32 51 59.08163
 2019-Jan-19 07:58  m  03 55 20.394448 +32 51 58.94944
 2019-Jan-19 07:59  m  03 55 20.473577 +32 51 58.81701
 2019-Jan-19 08:00  m  03 55 20.552722 +32 51 58.68436
 2019-Jan-19 08:01  m  03 55 20.631882 +32 51 58.55148
 2019-Jan-19 08:02  m  03 55 20.711057 +32 51 58.41838
 2019-Jan-19 08:03  m  03 55 20.790248 +32 51 58.28505
 2019-Jan-19 08:04  m  03 55 20.869455 +32 51 58.15149
 2019-Jan-19 08:05  m  03 55 20.948678 +32 51 58.01771
 2019-Jan-19 08:06  m  03 55 21.027918 +32 51 57.88371
 2019-Jan-19 08:07  m  03 55 21.107173 +32 51 57.74948
 2019-Jan-19 08:08  m  03 55 21.186445 +32 51 57.61504
 2019-Jan-19 08:09  m  03 55 21.265734 +32 51 57.48036
 2019-Jan-19 08:10  m  03 55 21.345039 +32 51 57.34547
 2019-Jan-19 08:11  m  03 55 21.424361 +32 51 57.21035
 2019-Jan-19 08:12  m  03 55 21.503701 +32 51 57.07502
 2019-Jan-19 08:13  m  03 55 21.583057 +32 51 56.93946
 2019-Jan-19 08:14  m  03 55 21.662431 +32 51 56.80368
 2019-Jan-19 08:15  m  03 55 21.741822 +32 51 56.66769
 2019-Jan-19 08:16  m  03 55 21.821231 +32 51 56.53147
 2019-Jan-19 08:17  m  03 55 21.900658 +32 51 56.39504
 2019-Jan-19 08:18  m  03 55 21.980102 +32 51 56.25839
 2019-Jan-19 08:19  m  03 55 22.059564 +32 51 56.12152
 2019-Jan-19 08:20  m  03 55 22.139045 +32 51 55.98443
